OBJECT_NAME,OBJECT_ID,EPOCH,MEAN_MOTION,ECCENTRICITY,INCLINATION,RA_OF_ASC_NODE,ARG_OF_PERICENTER,MEAN_ANOMALY,EPHEMERIS_TYPE,CLASSIFICATION_TYPE,NORAD_CAT_ID,ELEMENT_SET_NO,REV_AT_EPOCH,BSTAR,MEAN_MOTION_DOT,MEAN_MOTION_DDOT
QZS-6 (MICHIBIKI-6),2025-023A,2026-07-19T14:23:14.132832,1.00274502,.000192,0.0123,40.1211,74.8779,128.6618,0,U,62876,999,527,0,-.237E-5,0
ZHONGXING-10R,2025-036A,2026-07-19T14:17:32.460576,1.00270416,.00043581,0.0257,166.9429,339.4728,115.8610,0,U,63075,999,528,0,-.356E-5,0
TJS-15,2025-045A,2026-07-18T19:29:25.725120,1.00272854,.0003083,0.3094,85.6905,294.8019,302.8663,0,U,63157,999,507,0,-.272E-5,0
TIANLIAN 2-04,2025-062A,2026-07-19T13:33:24.576192,1.00272673,.00314024,4.2927,273.9726,9.2956,297.4630,0,U,63361,999,492,0,-.137E-5,0
TJS-16,2025-064A,2026-07-18T17:24:34.307712,1.00271244,.0002454,1.1777,81.2665,294.7569,342.2525,0,U,63397,999,470,0,-.112E-5,0
TJS-17,2025-073A,2026-07-18T19:48:12.890016,1.00271316,.0001008,1.1440,82.4266,314.2292,1.5118,0,U,63524,999,460,0,-.77E-6,0
TIANLIAN 2-05,2025-084A,2026-07-19T08:08:31.118784,1.00273158,.00027036,4.3707,279.4685,157.7854,2.3692,0,U,63662,999,470,0,.121E-5,0
TJS-19,2025-097A,2026-07-18T19:42:30.026304,1.00274857,.000411,3.2341,317.9697,251.3720,164.1101,0,U,63924,999,446,0,-.281E-5,0
CHINASAT 3B,2025-106A,2026-07-19T03:42:27.026208,1.00272149,.00041395,0.0330,186.5072,319.2493,14.1137,0,U,64062,999,438,0,-.5E-6,0
SXM-10,2025-122A,2026-07-19T06:56:16.740096,1.00271575,.00018181,0.0183,46.1891,317.2661,281.5229,0,U,64290,999,400,0,-.22E-6,0
COSMOS 2589,2025-131A,2026-07-18T19:39:31.426272,1.00268636,.0001222,0.0238,120.2702,64.5231,144.7079,0,U,64467,999,387,0,-.297E-5,0
CHINASAT 9C,2025-132A,2026-07-19T15:36:47.919168,1.00273323,.0003476,0.0141,95.7953,19.6547,148.3776,0,U,64470,999,447,0,-.251E-5,0
MTG-S1,2025-143A,2026-07-19T08:02:31.693920,1.00274833,.00032854,0.5820,346.0969,258.8002,172.4915,0,U,64723,999,374,0,-.12E-6,0
DROR 1,2025-148A,2026-07-19T04:36:15.585984,1.00272926,.00020077,0.0394,241.9936,159.5162,320.5475,0,U,64784,999,361,0,-.39E-6,0
SHIYAN-29,2025-196A,2026-07-17T23:08:38.701248,1.00275892,.00131541,28.8546,18.1469,177.5801,182.5349,0,U,65486,999,318,0,-.287E-5,0
NUSANTARA LIMA (NUSANTARA 5),2025-205A,2026-07-19T01:44:13.991424,1.00273575,.00004149,0.0115,91.7060,86.3457,257.7190,0,U,65588,999,303,0,-.363E-5,0
TJS-20,2025-238A,2026-07-19T15:13:44.445216,1.00268253,.00038481,5.3973,299.4271,187.4036,101.4647,0,U,66142,999,265,0,.24E-6,0
CMS-03 (GSAT-7R),2025-249B,2026-07-19T13:31:47.231040,1.00269959,.00024764,0.0163,59.5161,57.8364,96.9425,0,U,66311,999,267,0,0,0
VIASAT-3 F2,2025-261A,2026-07-19T05:35:20.210784,1.00272017,.00005666,0.0022,117.1237,93.1603,91.6055,0,U,66454,999,311,0,-.239E-5,0
SHIJIAN-28 (SJ-28),2025-277A,2026-07-19T13:43:53.569920,1.00274875,.00012002,4.4556,271.6162,55.5170,293.0161,0,U,66549,999,247,0,-.362E-5,0
TJS-22,2025-290A,2026-07-12T19:22:52.255200,1.00269739,.0002691,1.4677,286.9097,318.9700,42.0235,0,U,66990,999,228,0,-.5E-7,0
TJS-23,2025-306A,2026-07-19T12:18:29.760480,1.00268343,.00044057,5.5160,297.3167,199.9656,160.1885,0,U,67226,999,221,0,.15E-6,0
FENGYUN 4C,2025-312A,2026-07-13T15:48:28.031328,1.00269440,.00006584,0.0385,175.3203,48.7481,77.5697,0,U,67246,999,204,0,-.328E-5,0
SHIJIAN-29A (SJ-29A),2025-315A,2026-07-19T15:02:40.012800,1.00273139,.00049982,3.4786,94.3301,50.6535,91.2723,0,U,67302,999,194,0,-.73E-6,0
SHIJIAN-29B (SJ-29B),2025-315C,2026-07-19T14:20:04.625664,1.00273409,.00051959,3.4774,94.3238,54.0615,77.2457,0,U,67403,999,201,0,-.74E-6,0
ELEKTRO-L 5,2026-028A,2026-07-18T23:08:33.714240,1.00271836,.00020761,0.2028,326.9083,176.1187,216.9691,0,U,67756,999,156,0,-.104E-5,0
JAM-E JAM 1,2026-028B,2026-07-19T04:47:07.044576,1.00266238,.00006871,0.1991,314.9524,261.0918,186.7302,0,U,67757,999,144,0,.15E-5,0
ECHOSTAR 25,2026-045A,2026-07-19T11:25:38.596224,1.00271490,.00017533,0.0204,55.9013,54.0192,248.7418,0,U,68126,999,131,0,-.61E-6,0
TJS-24,2026-116A,2026-07-19T14:23:14.138016,1.00273760,.0000327,0.0883,94.2488,147.1130,2.1248,0,U,69235,999,55,0,-.236E-5,0
